TIANMU-1 14             
1 58648U 23205D   26147.00249644  .00006671  00000+0  25728-3 0  9998
2 58648  97.3410 168.1230 0009302  56.3588 303.8537 15.26596617134271
TIANMU-1 19             
1 58660U 23208A   26146.92023228  .00009160  00000+0  30637-3 0  9994
2 58660  97.4478 263.1202 0005654  46.6607 313.5104 15.31196985134071
TIANMU-1 20             
1 58661U 23208B   26146.90926230  .00008964  00000+0  28886-3 0  9992
2 58661  97.4420 263.7225 0007928  50.3058 309.8882 15.32388650134162
TIANMU-1 21             
1 58662U 23208C   26146.92921354  .00010692  00000+0  32059-3 0  9995
2 58662  97.4478 266.3325 0007779  43.7367 316.4491 15.34635512134309
TIANMU-1 22             
1 58663U 23208D   26146.96040773  .00008301  00000+0  28215-3 0  9990
2 58663  97.4475 263.1142 0004929  69.1834 290.9934 15.30708273134088
TIANMU-1 15             
1 58700U 24004A   26146.93115951  .00006409  00000+0  24617-3 0  9994
2 58700  97.4672 333.1216 0008449  69.8900 290.3247 15.26765481132539
TIANMU-1 16             
1 58701U 24004B   26146.98212559  .00006133  00000+0  23768-3 0  9992
2 58701  97.4617 332.4334 0007466  73.1961 287.0096 15.26492997132540
TIANMU-1 17             
1 58702U 24004C   26146.96757359  .00005912  00000+0  22923-3 0  9999
2 58702  97.4646 332.8959 0007043  77.8447 282.3581 15.26493496132532
TIANMU-1 18             
1 58703U 24004D   26146.94755655  .00005980  00000+0  23010-3 0  9998
2 58703  97.4664 333.1181 0005591  75.2055 284.9803 15.26754186132538
INSAT-3DS               
1 58990U 24033A   26146.95462821 -.00000151  00000+0  00000+0 0  9995
2 58990   0.0287 249.6263 0001548 164.7636 255.8619  1.00272415 46854
METEOR-M2 4             
1 59051U 24039A   26146.94012108  .00000005  00000+0  22142-4 0  9991
2 59051  98.7000 106.5068 0006145 225.4153 134.6524 14.22427067116244
GOES 19                 
1 60133U 24119A   26146.92349711  .00000000  00000+0  00000+0 0  9993
2 60133   0.0192  77.6294 0000641  36.6935  27.4303  1.00269647  6757
MTG-S1                  
1 64723U 25143A   26146.93764779 -.00000028  00000+0  00000+0 0  9997
2 64723   0.6222 334.6213 0001432  28.3694 215.6134  1.00270371  3208
METOP-SGA1              
1 65159U 25172A   26146.74092384  .00000040  00000+0  38315-4 0  9996
2 65159  98.6654 206.8588 0001061  83.6756 276.4542 14.21505642 40741
FENGYUN 3H              
1 65815U 25219A   26146.83069424  .00000047  00000+0  42430-4 0  9996
2 65815  98.6763  88.0161 0001565  93.6354 266.5002 14.19916054 34353
